CCSDS_OMM_VERS = 2.0
CREATION_DATE  = 
ORIGINATOR     = 

OBJECT_NAME    = STARLINK-36544
OBJECT_ID      = 2026-012AA
CENTER_NAME    = EARTH
REF_FRAME      = TEME
TIME_SYSTEM    = UTC
MEAN_ELEMENT_THEORY = SGP/SGP4

EPOCH          = 2026-02-17T04:00:00.999936
MEAN_MOTION    = 15.28399761
ECCENTRICITY   = .0001374
INCLINATION    = 42.9999
RA_OF_ASC_NODE = 70.2599
ARG_OF_PERICENTER = 263.6419
MEAN_ANOMALY   = 92.4156

EPHEMERIS_TYPE = 0
CLASSIFICATION_TYPE = U
NORAD_CAT_ID   = 67517
ELEMENT_SET_NO = 999
REV_AT_EPOCH   = 577
BSTAR          = .21718E-3
MEAN_MOTION_DOT = .5869E-4
MEAN_MOTION_DDOT = 0

CCSDS_OMM_VERS = 2.0
CREATION_DATE  = 
ORIGINATOR     = 

OBJECT_NAME    = STARLINK-36412
OBJECT_ID      = 2026-012AB
CENTER_NAME    = EARTH
REF_FRAME      = TEME
TIME_SYSTEM    = UTC
MEAN_ELEMENT_THEORY = SGP/SGP4

EPOCH          = 2026-02-17T04:00:00.999936
MEAN_MOTION    = 15.32298380
ECCENTRICITY   = .0001394
INCLINATION    = 42.9993
RA_OF_ASC_NODE = 70.0451
ARG_OF_PERICENTER = 280.1609
MEAN_ANOMALY   = 165.2776

EPHEMERIS_TYPE = 0
CLASSIFICATION_TYPE = U
NORAD_CAT_ID   = 67518
ELEMENT_SET_NO = 999
REV_AT_EPOCH   = 571
BSTAR          = -.65135E-1
MEAN_MOTION_DOT = -.1858828E-1
MEAN_MOTION_DDOT = 0

CCSDS_OMM_VERS = 2.0
CREATION_DATE  = 
ORIGINATOR     = 

OBJECT_NAME    = STARLINK-36415
OBJECT_ID      = 2026-012AC
CENTER_NAME    = EARTH
REF_FRAME      = TEME
TIME_SYSTEM    = UTC
MEAN_ELEMENT_THEORY = SGP/SGP4

EPOCH          = 2026-02-17T04:00:00.999936
MEAN_MOTION    = 15.33173895
ECCENTRICITY   = .0001376
INCLINATION    = 42.9987
RA_OF_ASC_NODE = 69.9818
ARG_OF_PERICENTER = 285.8056
MEAN_ANOMALY   = 184.8351

EPHEMERIS_TYPE = 0
CLASSIFICATION_TYPE = U
NORAD_CAT_ID   = 67519
ELEMENT_SET_NO = 999
REV_AT_EPOCH   = 592
BSTAR          = -.6372E-1
MEAN_MOTION_DOT = -.1868638E-1
MEAN_MOTION_DDOT = 0

CCSDS_OMM_VERS = 2.0
CREATION_DATE  = 
ORIGINATOR     = 

OBJECT_NAME    = STARLINK-36547
OBJECT_ID      = 2026-012AD
CENTER_NAME    = EARTH
REF_FRAME      = TEME
TIME_SYSTEM    = UTC
MEAN_ELEMENT_THEORY = SGP/SGP4

EPOCH          = 2026-02-17T04:00:00.999936
MEAN_MOTION    = 15.31831546
ECCENTRICITY   = .0001249
INCLINATION    = 42.9992
RA_OF_ASC_NODE = 70.0860
ARG_OF_PERICENTER = 275.6299
MEAN_ANOMALY   = 152.9142

EPHEMERIS_TYPE = 0
CLASSIFICATION_TYPE = U
NORAD_CAT_ID   = 67520
ELEMENT_SET_NO = 999
REV_AT_EPOCH   = 571
BSTAR          = -.65807E-1
MEAN_MOTION_DOT = -.1851275E-1
MEAN_MOTION_DDOT = 0

CCSDS_OMM_VERS = 2.0
CREATION_DATE  = 
ORIGINATOR     = 

OBJECT_NAME    = STARLINK-36444
OBJECT_ID      = 2026-012AE
CENTER_NAME    = EARTH
REF_FRAME      = TEME
TIME_SYSTEM    = UTC
MEAN_ELEMENT_THEORY = SGP/SGP4

EPOCH          = 2026-02-17T04:00:00.999936
MEAN_MOTION    = 15.33285939
ECCENTRICITY   = .0001332
INCLINATION    = 43.0001
RA_OF_ASC_NODE = 70.1576
ARG_OF_PERICENTER = 261.9530
MEAN_ANOMALY   = 138.2051

EPHEMERIS_TYPE = 0
CLASSIFICATION_TYPE = U
NORAD_CAT_ID   = 67521
ELEMENT_SET_NO = 999
REV_AT_EPOCH   = 571
BSTAR          = -.63448E-1
MEAN_MOTION_DOT = -.1867413E-1
MEAN_MOTION_DDOT = 0

CCSDS_OMM_VERS = 2.0
CREATION_DATE  = 
ORIGINATOR     = 

OBJECT_NAME    = HULIANWANG DIGUI-146
OBJECT_ID      = 2026-013A
CENTER_NAME    = EARTH
REF_FRAME      = TEME
TIME_SYSTEM    = UTC
MEAN_ELEMENT_THEORY = SGP/SGP4

EPOCH          = 2026-02-16T12:09:30.693600
MEAN_MOTION    = 13.71823317
ECCENTRICITY   = .0001236
INCLINATION    = 50.0080
RA_OF_ASC_NODE = 73.2377
ARG_OF_PERICENTER = 334.4561
MEAN_ANOMALY   = 25.6268

EPHEMERIS_TYPE = 0
CLASSIFICATION_TYPE = U
NORAD_CAT_ID   = 67522
ELEMENT_SET_NO = 999
REV_AT_EPOCH   = 392
BSTAR          = .11837E-3
MEAN_MOTION_DOT = -.32E-6
MEAN_MOTION_DDOT = 0

CCSDS_OMM_VERS = 2.0
CREATION_DATE  = 
ORIGINATOR     = 

OBJECT_NAME    = HULIANWANG DIGUI-147
OBJECT_ID      = 2026-013B
CENTER_NAME    = EARTH
REF_FRAME      = TEME
TIME_SYSTEM    = UTC
MEAN_ELEMENT_THEORY = SGP/SGP4

EPOCH          = 2026-02-17T00:20:14.020224
MEAN_MOTION    = 13.72092333
ECCENTRICITY   = .0001746
INCLINATION    = 50.0051
RA_OF_ASC_NODE = 71.2411
ARG_OF_PERICENTER = 38.6205
MEAN_ANOMALY   = 321.4810

EPHEMERIS_TYPE = 0
CLASSIFICATION_TYPE = U
NORAD_CAT_ID   = 67523
ELEMENT_SET_NO = 999
REV_AT_EPOCH   = 399
BSTAR          = .10789E-3
MEAN_MOTION_DOT = -.41E-6
MEAN_MOTION_DDOT = 0

CCSDS_OMM_VERS = 2.0
CREATION_DATE  = 
ORIGINATOR     = 

OBJECT_NAME    = HULIANWANG DIGUI-148
OBJECT_ID      = 2026-013C
CENTER_NAME    = EARTH
REF_FRAME      = TEME
TIME_SYSTEM    = UTC
MEAN_ELEMENT_THEORY = SGP/SGP4

EPOCH          = 2026-02-16T13:43:12.151488
MEAN_MOTION    = 13.72180444
ECCENTRICITY   = .0000233
INCLINATION    = 50.0090
RA_OF_ASC_NODE = 72.9185
ARG_OF_PERICENTER = 355.4694
MEAN_ANOMALY   = 4.6195

EPHEMERIS_TYPE = 0
CLASSIFICATION_TYPE = U
NORAD_CAT_ID   = 67524
ELEMENT_SET_NO = 999
REV_AT_EPOCH   = 393
BSTAR          = .12835E-3
MEAN_MOTION_DOT = -.22E-6
MEAN_MOTION_DDOT = 0

CCSDS_OMM_VERS = 2.0
CREATION_DATE  = 
ORIGINATOR     = 

OBJECT_NAME    = HULIANWANG DIGUI-149
OBJECT_ID      = 2026-013D
CENTER_NAME    = EARTH
REF_FRAME      = TEME
TIME_SYSTEM    = UTC
MEAN_ELEMENT_THEORY = SGP/SGP4

EPOCH          = 2026-02-16T13:36:25.379424
MEAN_MOTION    = 13.72336276
ECCENTRICITY   = .0000852
INCLINATION    = 50.0085
RA_OF_ASC_NODE = 72.8908
ARG_OF_PERICENTER = 98.4045
MEAN_ANOMALY   = 261.6943

EPHEMERIS_TYPE = 0
CLASSIFICATION_TYPE = U
NORAD_CAT_ID   = 67525
ELEMENT_SET_NO = 999
REV_AT_EPOCH   = 393
BSTAR          = .11759E-3
MEAN_MOTION_DOT = -.32E-6
MEAN_MOTION_DDOT = 0

CCSDS_OMM_VERS = 2.0
CREATION_DATE  = 
ORIGINATOR     = 

OBJECT_NAME    = HULIANWANG DIGUI-150
OBJECT_ID      = 2026-013E
CENTER_NAME    = EARTH
REF_FRAME      = TEME
TIME_SYSTEM    = UTC
MEAN_ELEMENT_THEORY = SGP/SGP4

EPOCH          = 2026-02-16T13:24:54.181152
MEAN_MOTION    = 13.72667463
ECCENTRICITY   = .0000499
INCLINATION    = 50.0046
RA_OF_ASC_NODE = 72.8315
ARG_OF_PERICENTER = 64.4392
MEAN_ANOMALY   = 295.6550

EPHEMERIS_TYPE = 0
CLASSIFICATION_TYPE = U
NORAD_CAT_ID   = 67526
ELEMENT_SET_NO = 999
REV_AT_EPOCH   = 395
BSTAR          = .12625E-3
MEAN_MOTION_DOT = -.23E-6
MEAN_MOTION_DDOT = 0

CCSDS_OMM_VERS = 2.0
CREATION_DATE  = 
ORIGINATOR     = 

OBJECT_NAME    = HULIANWANG DIGUI-151
OBJECT_ID      = 2026-013F
CENTER_NAME    = EARTH
REF_FRAME      = TEME
TIME_SYSTEM    = UTC
MEAN_ELEMENT_THEORY = SGP/SGP4

EPOCH          = 2026-02-16T14:56:49.741152
MEAN_MOTION    = 13.73319861
ECCENTRICITY   = .0000499
INCLINATION    = 50.0091
RA_OF_ASC_NODE = 72.5243
ARG_OF_PERICENTER = 137.3593
MEAN_ANOMALY   = 222.7337

EPHEMERIS_TYPE = 0
CLASSIFICATION_TYPE = U
NORAD_CAT_ID   = 67527
ELEMENT_SET_NO = 999
REV_AT_EPOCH   = 394
BSTAR          = .14354E-3
MEAN_MOTION_DOT = -.6E-7
MEAN_MOTION_DDOT = 0

CCSDS_OMM_VERS = 2.0
CREATION_DATE  = 
ORIGINATOR     = 

OBJECT_NAME    = HULIANWANG DIGUI-152
OBJECT_ID      = 2026-013G
CENTER_NAME    = EARTH
REF_FRAME      = TEME
TIME_SYSTEM    = UTC
MEAN_ELEMENT_THEORY = SGP/SGP4

EPOCH          = 2026-02-16T13:21:31.413312
MEAN_MOTION    = 13.72913823
ECCENTRICITY   = .0001959
INCLINATION    = 50.0039
RA_OF_ASC_NODE = 72.8164
ARG_OF_PERICENTER = 115.1030
MEAN_ANOMALY   = 245.0064

EPHEMERIS_TYPE = 0
CLASSIFICATION_TYPE = U
NORAD_CAT_ID   = 67528
ELEMENT_SET_NO = 999
REV_AT_EPOCH   = 393
BSTAR          = .13844E-3
MEAN_MOTION_DOT = -.11E-6
MEAN_MOTION_DDOT = 0

